CZ-2D R/B               
1 28738U 05024B   26095.30605165  .00055189  00000+0  61234-3 0  9993
2 28738  97.3566 111.4754 0001818 271.9988  88.1062 15.62776122143935
ALOS (DAICHI)           
1 28931U 06002A   26095.12023419  .00001942  00000+0  33293-3 0  9993
2 28931  98.1263  50.9521 0001154 115.7482 244.3843 14.69897462 77362
H-2A R/B                
1 28932U 06002B   26094.99858144  .00012555  00000+0  61550-3 0  9998
2 28932  98.2467 244.3046 0052506 151.3054 209.1084 15.17060462 98421
RESURS-DK 1             
1 29228U 06021A   26095.24801308  .00003399  00000+0  19856-3 0  9995
2 29228  69.9329 168.3203 0002060  32.7151 327.4142 15.12915812 91540
CZ-4B R/B               
1 29507U 06046C   26095.12511488  .00006587  00000+0  33024-3 0  9991
2 29507  97.5536 139.9601 0033358 173.2345 186.9346 15.17196776 64058
CZ-2C R/B               
1 31114U 07010B   26095.28563863  .00000213  00000+0  11700-3 0  9998
2 31114  98.4006 207.2350 0058394 215.9362 143.7882 14.20256773983498
COSMO-SKYMED 1          
1 31598U 07023A   26095.27390594  .00005296  00000+0  46832-3 0  9996
2 31598  97.8873 286.5231 0001656  99.5694 260.5714 14.96746436 18887
COSMOS 2428             
1 31792U 07029A   26095.29521791 -.00000032  00000+0  85431-5 0  9999
2 31792  70.9420 147.5034 0009695 249.4024 110.6058 14.12948974967859
SL-16 R/B               
1 31793U 07029B   26095.22084715 -.00000127  00000+0 -40780-4 0  9996
2 31793  70.9738 116.6153 0002913 276.4717 160.5152 14.14843880969129
KORONAS-FOTON           
1 33504U 09003A   26095.14714395  .00017158  00000+0  37323-3 0  9995
2 33504  82.4289 248.3526 0011409  63.5032 296.7385 15.44107624949820
CZ-2C R/B               
1 37731U 11030B   26095.31335727  .00001967  00000+0  25344-3 0  9992
2 37731  97.8590  52.0535 0050928 263.6264 257.9435 14.81320163794031
H-2A R/B                
1 38341U 12025E   26095.16142992  .00003517  00000+0  31910-3 0  9997
2 38341  98.4775  64.3387 0043354 225.1948 134.5743 14.95359059752171
SHIJIAN-16 (SJ-16)      
1 39358U 13057A   26095.24252300  .00001064  00000+0  10642-3 0  9990
2 39358  74.9708 134.8208 0015405  43.7863 316.4543 14.92442118675467
SL-4 R/B                
1 39679U 14021B   26095.30564319  .00021451  00000+0  45693-3 0  9997
2 39679  51.6069 207.3414 0094283 200.1230 159.6028 15.40203840660378
ALOS-2                  
1 39766U 14029A   26095.23088630  .00000404  00000+0  60955-4 0  9995
2 39766  97.9198 193.4419 0001803  96.8964 263.2453 14.79452015640790
YAOGAN-29               
1 41038U 15069A   26095.31077057  .00001543  00000+0  19638-3 0  9991
2 41038  98.0099 123.8072 0000163 161.3576 198.7644 14.83029747559828
ASTRO-H (HITOMI)        
1 41337U 16012A   26094.94146210  .00003970  00000+0  23135-3 0  9991
2 41337  30.9987 187.1155 0009672 235.8746 124.0975 15.10181900556205
HXMT (HUIYAN)           
1 42758U 17034A   26095.30129144  .00009040  00000+0  44454-3 0  9993
2 42758  43.0142 228.6834 0030810  41.1588 319.1577 15.17831714486586
SAOCOM 1A               
1 43641U 18076A   26094.81958130  .00001432  00000+0  18641-3 0  9998
2 43641  97.8896 282.6237 0001476  86.6110 273.5272 14.82153107405231
H-2A R/B                
1 43682U 18084L   26095.14503952  .00023691  00000+0  54183-3 0  9999
2 43682  98.8681 318.2074 0023236 292.0652  67.8123 15.42560522409857
SAOCOM 1B               
1 46265U 20059A   26095.25589662  .00000244  00000+0  37257-4 0  9991
2 46265  97.8883 282.1500 0001416  84.2298 275.9076 14.82149925302681
CSS (TIANHE)            
1 48274U 21035A   26095.26060825  .00034768  00000+0  38992-3 0  9998
2 48274  41.4682  46.3215 0003546 128.6293 231.4864 15.61939070281765
COSMOS 2550             
1 48865U 21056A   26094.40472941  .00002815  00000+0  91326-4 0  9997
2 48865  67.1431 323.0974 0008430 269.6767  90.3422 15.33837300267403
CZ-2C R/B               
1 52794U 22058K   26095.24085150  .00044151  00000+0  59342-3 0  9991
2 52794  50.1867 181.5046 0041105 314.8441  44.9194 15.56391738214261
CZ-2C R/B               
1 54039U 22132E   26094.93955842  .00050326  00000+0  51975-3 0  9992
2 54039  97.2955  99.1025 0015695   2.6224 357.5115 15.64475351194471
GSLV R/B                
1 54149U 22138AN  26095.19407473  .00003724  00000+0  31994-3 0  9990
2 54149  87.3847 157.4876 0023608  59.5844 300.7716 14.96953742187891
XRISM                   
1 57800U 23137A   26095.31685055  .00006668  00000+0  37480-3 0  9991
2 57800  31.0012 111.3941 0007823 306.0861  53.9053 15.11832006141821
ACS3                    
1 59588U 24077B   26094.76788555  .00040672  00000+0  31622-1 0  9990
2 59588  97.1949  30.0195 0073359  18.0260 342.3481 13.90931246 97827
HTV-X1                  
1 66174U 25241A   26095.19137777  .00007088  00000+0  23350-3 0  9990
2 66174  51.6362 305.3144 0007368 275.0923  84.9217 15.32544764 25000
SZ-21 MODULE            
1 66515U 25246C   26095.22396600  .00051413  00000+0  40162-3 0  9991
2 66515  41.4750  39.7632 0003443 230.9448 129.1088 15.70779178 22241
